Store,2024,Store_ID,Store_Status,Postal_Code,City,GPS_Coordinates,Poststed,Region_Code,Region_Name,Municipality_Code,Municipality_Name,PostnummerKategoriKode,PostnummerKategori,Latitude,Longitude
arendal,657340.107,201,Open,4836,Arendal,58.4594945;8.7634542,ARENDAL,09,AUST-AGDER,0906,ARENDAL,G,Gateadresser og stedsadresser,58.4591500,8.7607500
brokelandsheia,202000.73,409,Open,4993,Sundebru,58.8242306; 9.0740381,SUNDEBRU,09,AUST-AGDER,0911,GJERSTAD,G,Gateadresser og stedsadresser,58.8218740,9.0727330
evje,130385.25600000001,172,Open,4735,Evje,58.586901;7.805743,EVJE,09,AUST-AGDER,0937,EVJE OG HORNNES,B,Både gateadresser og postbokser,58.5861200,7.8060900
farsund,157736.174,307,Open,4550,Farsund,58.09639305;06.80553279,FARSUND,10,VEST-AGDER,1003,FARSUND,G,Gateadresser og stedsadresser,58.0945170,6.8019980
flekkefjord,138930.686,167,Open,4400,Flekkefjord,58.2965231;6.6619036,FLEKKEFJORD,10,VEST-AGDER,1004,FLEKKEFJORD,G,Gateadresser og stedsadresser,58.2962070,6.6627330
froland,199482.69800000003,437,Open,4820,Froland,58.5084127;8.6293413,FROLAND,09,AUST-AGDER,0919,FROLAND,G,Gateadresser og stedsadresser,58.5083810,8.6305330
grimstad,327752.684,211,Open,4876,Grimstad,58.3416;8.5938,GRIMSTAD,09,AUST-AGDER,0904,GRIMSTAD,G,Gateadresser og stedsadresser,58.3394400,8.5885200
hovden,56292.299999999996,107,Open,4755,Hovden I Setesdal,59.559677;7.355829,HOVDEN I SETESDAL,09,AUST-AGDER,0941,BYKLE,G,Gateadresser og stedsadresser,59.5581360,7.3577630
"kristiansand, lillemarkens",631003.084,254,Open,4611,Kristiansand S,58.1452;7.9915,KRISTIANSAND S,10,VEST-AGDER,1001,KRISTIANSAND,G,Gateadresser og stedsadresser,58.1457600,7.9937500
"kristiansand, sorlandssenteret",656887.993,253,Open,4636,Kristiansand S,58.1799;8.1333,KRISTIANSAND S,10,VEST-AGDER,1001,KRISTIANSAND,G,Gateadresser og stedsadresser,58.1753500,8.1256300
"kristiansand, vagsbygd",348980.742,386,Open,4621,Kristiansand S,58.1253;7.9526,KRISTIANSAND S,10,VEST-AGDER,1001,KRISTIANSAND,G,Gateadresser og stedsadresser,58.1247100,7.9523500
kvinesdal,58124.628,430,Open,4480,Kvinesdal,58.3176;6.9587,KVINESDAL,10,VEST-AGDER,1037,KVINESDAL,G,Gateadresser og stedsadresser,58.3143100,6.9618000
lillesand,233821.83800000002,306,Open,4790,Lillesand,58.249204;8.376206,LILLESAND,09,AUST-AGDER,0926,LILLESAND,G,Gateadresser og stedsadresser,58.2487530,8.3767630
lyngdal,180435.219,345,Open,4580,Lyngdal,58.138;7.069,LYNGDAL,10,VEST-AGDER,1032,LYNGDAL,G,Gateadresser og stedsadresser,58.1375800,7.0686300
mandal,297698.774,266,Open,4517,Mandal,58.0293;7.4614,MANDAL,10,VEST-AGDER,1002,MANDAL,G,Gateadresser og stedsadresser,58.0392100,7.4590000
risor,141013.447,169,Open,4950,Risør,58.7211;9.2338,RISØR,09,AUST-AGDER,0901,RISØR,G,Gateadresser og stedsadresser,58.7206000,9.2342000
sogne,290602.95600000006,354,Open,4640,Søgne,58.0986;7.8152,SØGNE,10,VEST-AGDER,1018,SØGNE,G,Gateadresser og stedsadresser,58.0966000,7.8149000
tvedestrand,239424.837,323,Open,4900,Tvedestrand,58.6240313;8.9277902,TVEDESTRAND,09,AUST-AGDER,0914,TVEDESTRAND,G,Gateadresser og stedsadresser,58.6220000,8.9266000
vennesla,156326.105,344,Open,4700,Vennesla,58.27097461;7.970477342,VENNESLA,10,VEST-AGDER,1014,VENNESLA,G,Gateadresser og stedsadresser,58.2701700,7.9733900
asker,622380.5050000001,202,Open,1383,Asker,59.8367269;10.4336347,ASKER,02,AKERSHUS,0220,ASKER,G,Gateadresser og stedsadresser,59.8342400,10.4125500
bjorkelangen,152766.142,301,Open,1940,Bjørkelangen,59.8831;11.5667,BJØRKELANGEN,02,AKERSHUS,0221,AURSKOG-HØLAND,G,Gateadresser og stedsadresser,59.8838990,11.5705780
"barum, bekkestua",487770.464,190,Open,1357,Bekkestua,59.9166545;10.5887072,BEKKESTUA,02,AKERSHUS,0219,BÆRUM,G,Gateadresser og stedsadresser,59.9184620,10.5872150
"barum, barums verk",172730.40999999997,453,Open,1353,Bærums Verk,59.9414269;10.5019759,BÆRUMS VERK,02,AKERSHUS,0219,BÆRUM,G,Gateadresser og stedsadresser,59.9418790,10.5003980
"barum, fornebu",364864.403,442,Open,1364,Fornebu,59.8935172;10.6207561,FORNEBU,02,AKERSHUS,0219,BÆRUM,G,Gateadresser og stedsadresser,59.8949430,10.6257530
"barum, kolsas",646124.373,124,Open,1352,Kolsås,59.915870361;10.500054359,KOLSÅS,02,AKERSHUS,0219,BÆRUM,G,Gateadresser og stedsadresser,59.9166580,10.5004460
"barum, sandvika",572356.691,194,Open,1337,Sandvika,59.89284471;10.52303,SANDVIKA,02,AKERSHUS,0219,BÆRUM,G,Gateadresser og stedsadresser,59.8927500,10.5232300
"barum, osteras",365157.41500000004,198,Open,1361,Østerås,59.9437096;10.6074228,ØSTERÅS,02,AKERSHUS,0219,BÆRUM,G,Gateadresser og stedsadresser,59.9434550,10.6128290
drobak,291703.5640000001,210,Open,1440,Drøbak,59.6641223;10.6279021,DRØBAK,02,AKERSHUS,0215,FROGN,G,Gateadresser og stedsadresser,59.6633410,10.6294470
eidsvoll,137774.483,213,Open,2080,Eidsvoll,60.329518;11.258647,EIDSVOLL,02,AKERSHUS,0237,EIDSVOLL,G,Gateadresser og stedsadresser,60.3275700,11.2598900
fetsund,137002.774,441,Open,1900,Fetsund,59.9281273;11.162448,FETSUND,02,AKERSHUS,0227,FET,G,Gateadresser og stedsadresser,59.9276250,11.1612940
fjerdingby,85821.907,477,Open,2008,Fjerdingby,59.92363;11.064413,FJERDINGBY,02,AKERSHUS,0228,RÆLINGEN,G,Gateadresser og stedsadresser,59.9225100,11.0681700
gjerdrum,93517.24500000001,426,Open,2022,Gjerdrum,60.070810856;11.035364270,GJERDRUM,02,AKERSHUS,0234,GJERDRUM,G,Gateadresser og stedsadresser,60.0794850,11.0218530
holmen senter,647694.8119999999,135,Open,1394,Nesbru,59.8543714;10.4882964,NESBRU,02,AKERSHUS,0220,ASKER,G,Gateadresser og stedsadresser,59.8662370,10.4906990
jessheim,430381.5749999999,246,Open,2050,Jessheim,60.1419248;11.1747038,JESSHEIM,02,AKERSHUS,0235,ULLENSAKER,G,Gateadresser og stedsadresser,60.1433420,11.1739260
jevnaker,129992.71300000002,377,Open,3520,Jevnaker,60.2411;10.3847,JEVNAKER,05,OPPLAND,0532,JEVNAKER,G,Gateadresser og stedsadresser,60.2394200,10.3847300
klofta,252773.27899999995,455,Open,2040,Kløfta,60.0761246;11.136121,KLØFTA,02,AKERSHUS,0235,ULLENSAKER,G,Gateadresser og stedsadresser,60.0768360,11.1369380
kolbotn,447938.85,234,Open,1410,Kolbotn,59.810037;10.799959,KOLBOTN,02,AKERSHUS,0217,OPPEGÅRD,G,Gateadresser og stedsadresser,59.8104060,10.8035840
lillestrom,358525.05600000004,265,Open,2000,Lillestrøm,59.9575929;11.0483251,LILLESTRØM,02,AKERSHUS,0231,SKEDSMO,G,Gateadresser og stedsadresser,59.9562140,11.0491560
"lorenskog, metro",362517.944,473,Open,1473,Lørenskog,59.9275692;10.9583706,LØRENSKOG,02,AKERSHUS,0230,LØRENSKOG,G,Gateadresser og stedsadresser,59.9284420,10.9571460
"lorenskog, triaden",319765.74400000006,287,Open,1461,Lørenskog,59.9191869;10.9529987,NA,NA,NA,NA,NA,NA,NA,NA,NA
nannestad,111395.10900000001,392,Open,2030,Nannestad,60.220442;11.014352,NANNESTAD,02,AKERSHUS,0238,NANNESTAD,G,Gateadresser og stedsadresser,60.2224240,11.0141290
nesodden,348191.428,134,Open,1452,Nesoddtangen,59.8559265137;10.66083335,NA,NA,NA,NA,NA,NA,NA,NA,NA
nittedal,273933.441,105,Open,1482,Nittedal,60.0474078;10.8799996,NITTEDAL,02,AKERSHUS,0233,NITTEDAL,G,Gateadresser og stedsadresser,60.0587300,10.8667200
raholt,248859.758,470,Open,2070,Råholt,60.2811161;11.1742052,RÅHOLT,02,AKERSHUS,0237,EIDSVOLL,G,Gateadresser og stedsadresser,60.2809940,11.1750110
skedsmokorset,344755.739,472,Open,2020,Skedsmokorset,60.000991;11.0397496,SKEDSMOKORSET,02,AKERSHUS,0231,SKEDSMO,G,Gateadresser og stedsadresser,60.0045430,11.0329200
ski,520619.059,289,Open,1400,Ski,59.7164197;10.8360662,SKI,02,AKERSHUS,0213,SKI,G,Gateadresser og stedsadresser,59.7152140,10.8381840
slemmestad,391234.037,173,Open,3470,Slemmestad,59.7782498;10.4846048,SLEMMESTAD,06,BUSKERUD,0627,RØYKEN,G,Gateadresser og stedsadresser,59.7804000,10.4988000
son,138786.997,462,Open,1555,Son,59.52579;10.689055,SON,02,AKERSHUS,0211,VESTBY,G,Gateadresser og stedsadresser,59.5235070,10.6854810
strommen,506699.71700000006,291,Open,2010,Strømmen,59.947564;11.007335,STRØMMEN,02,AKERSHUS,0231,SKEDSMO,G,Gateadresser og stedsadresser,59.9481340,11.0047820
satre,161962.61699999997,112,Open,3475,Sætre,59.6815398;10.5258609,SÆTRE,06,BUSKERUD,0628,HURUM,G,Gateadresser og stedsadresser,59.6815430,10.5270050
sorumsand,135032.666,378,Open,1920,Sørumsand,59.98717;11.24458,SØRUMSAND,02,AKERSHUS,0226,SØRUM,G,Gateadresser og stedsadresser,59.9828700,11.2419100
tofte,81790.88100000001,397,Open,3482,Tofte,59.54179;10.558800,TOFTE,06,BUSKERUD,0628,HURUM,G,Gateadresser og stedsadresser,59.5414710,10.5575180
vestby,302817.854,351,Open,1540,Vestby,59.60398;10.74317,VESTBY,02,AKERSHUS,0211,VESTBY,G,Gateadresser og stedsadresser,59.6018120,10.7493710
vinterbro,502423.486,338,Open,1407,Vinterbro,59.7397965;10.7666609,VINTERBRO,02,AKERSHUS,0214,ÅS,G,Gateadresser og stedsadresser,59.7392900,10.7705900
ytre enebakk,108066.867,415,Open,1914,Ytre Enebakk,59.7239822;11.0503022,YTRE ENEBAKK,02,AKERSHUS,0229,ENEBAKK,G,Gateadresser og stedsadresser,59.7216000,11.0567000
arnes,197477.66399999993,176,Open,2150,Årnes,60.1226555;11.4678998,ÅRNES,02,AKERSHUS,0236,NES,G,Gateadresser og stedsadresser,60.1239160,11.4659930
as,167477.532,418,Open,1430,Ås,59.66468;10.79081,ÅS,02,AKERSHUS,0214,ÅS,G,Gateadresser og stedsadresser,59.6601540,10.7931030
"drammen, bragernes",291873.193,205,Open,3016,Drammen,59.745742;10.202855,DRAMMEN,06,BUSKERUD,0602,DRAMMEN,G,Gateadresser og stedsadresser,59.7488300,10.2051700
"drammen, cc",605354.663,468,Open,3012,Drammen,59.7413889;10.2210607000,DRAMMEN,06,BUSKERUD,0602,DRAMMEN,G,Gateadresser og stedsadresser,59.7423300,10.2242500
"drammen, stromso",313594.57700000005,207,Open,3045,Drammen,59.742764;10.194336,DRAMMEN,06,BUSKERUD,0602,DRAMMEN,G,Gateadresser og stedsadresser,59.7397800,10.1901500
eggedal,43517.475000000006,119,Open,3359,Eggedal,60.245703 ; 9.356065,EGGEDAL,06,BUSKERUD,0621,SIGDAL,B,Både gateadresser og postbokser,60.2467900,9.3553100
fla,63027.471,452,Open,3539,Flå,60.4302089;9.4619752,FLÅ,06,BUSKERUD,0615,FLÅ,B,Både gateadresser og postbokser,60.4282100,9.4662700
geilo,218577.41100000002,304,Open,3580,Geilo,60.5342095;8.2091357,GEILO,06,BUSKERUD,0620,HOL,G,Gateadresser og stedsadresser,60.5350580,8.2060050
gol,215716.925,225,Open,3550,Gol,60.7019928;8.9368812,GOL,06,BUSKERUD,0617,GOL,G,Gateadresser og stedsadresser,60.7003770,8.9451890
hemsedal,102598.145,419,Open,3560,Hemsedal,60.86307;8.55233,HEMSEDAL,06,BUSKERUD,0618,HEMSEDAL,G,Gateadresser og stedsadresser,60.8629480,8.5541010
hokksund,276749.93999999994,375,Open,3300,Hokksund,59.7692;9.91,HOKKSUND,06,BUSKERUD,0624,ØVRE EIKER,G,Gateadresser og stedsadresser,59.7701610,9.9096680
honefoss,404847.17000000004,242,Open,3510,Hønefoss,60.1647532;10.2536553,HØNEFOSS,06,BUSKERUD,0605,RINGERIKE,G,Gateadresser og stedsadresser,60.1627600,10.2520600
kongsberg,455628.44800000003,247,Open,3616,Kongsberg,59.6640275;9.6474783,KONGSBERG,06,BUSKERUD,0604,KONGSBERG,G,Gateadresser og stedsadresser,59.6603600,9.6413600
krokstadelva,455068.487,126,Open,3055,Krokstadelva,59.7561449;9.9991519,KROKSTADELVA,06,BUSKERUD,0625,NEDRE EIKER,G,Gateadresser og stedsadresser,59.7598530,9.9985890
liertoppen,428812.446,362,Open,3420,Lierskogen,59.8113;10.3048,LIERSKOGEN,06,BUSKERUD,0626,LIER,G,Gateadresser og stedsadresser,59.8196250,10.3300920
nesbyen,87171.123,387,Open,3540,Nesbyen,60.5687;9.1026,NESBYEN,06,BUSKERUD,0616,NES,G,Gateadresser og stedsadresser,60.5708100,9.1004500
noresund,61254.852,131,Open,3536,Noresund,60.179917;9.625762,NORESUND,06,BUSKERUD,0622,KRØDSHERAD,B,Både gateadresser og postbokser,60.1812400,9.6237600
rodberg,45757.457,412,Open,3630,Rødberg,60.267810;8.9454177,RØDBERG,06,BUSKERUD,0633,NORE OG UVDAL,G,Gateadresser og stedsadresser,60.2674920,8.9457960
svelvik,121897.259,422,Open,3060,Svelvik,59.617607;10.409519,SVELVIK,07,VESTFOLD,0711,SVELVIK,G,Gateadresser og stedsadresser,59.6134930,10.4087130
vik i hole,142196.04,467,Open,3530,Røyse,60.07769;10.282087,RØYSE,06,BUSKERUD,0612,HOLE,G,Gateadresser og stedsadresser,60.0781800,10.2829030
vikersund,185461.614,171,Open,3370,Vikersund,59.964399;9.99258,VIKERSUND,06,BUSKERUD,0623,MODUM,G,Gateadresser og stedsadresser,59.9675940,9.9972800
al,79173.775,406,Open,3570,Ål,60.63089;8.56431,ÅL,06,BUSKERUD,0619,ÅL,G,Gateadresser og stedsadresser,60.6300600,8.5626410
alta,415350.461,200,Open,9510,Alta,69.9661952;23.2726005,ALTA,20,FINNMARK,2012,ALTA,G,Gateadresser og stedsadresser,69.9704200,23.2861300
batsfjord,43982.126000000004,318,Open,9990,Båtsfjord,70.6369874;29.7262439,BÅTSFJORD,20,FINNMARK,2028,BÅTSFJORD,G,Gateadresser og stedsadresser,70.6274810,29.7125500
hammerfest,196416.122,220,Open,9600,Hammerfest,70.6636654;23.6825083,HAMMERFEST,20,FINNMARK,2004,HAMMERFEST,B,Både gateadresser og postbokser,70.6629900,23.6799600
honningsvag,72064.415,239,Open,9750,Honningsvåg,70.9819;25.9715,HONNINGSVÅG,20,FINNMARK,2019,NORDKAPP,G,Gateadresser og stedsadresser,70.9821830,25.9704350
kautokeino,15372.544999999998,319,Open,9520,Kautokeino,69.0114592;23.0415377,KAUTOKEINO,20,FINNMARK,2011,GUOVDAGEAIDNU KAUTOKEINO,G,Gateadresser og stedsadresser,69.0239300,23.0581600
kirkenes,215872.89800000002,228,Open,9900,Kirkenes,69.7280118;30.0376009,KIRKENES,20,FINNMARK,2030,SØR-VARANGER,G,Gateadresser og stedsadresser,69.7243540,30.0506570
kjollefjord,28750.614999999998,447,Open,9790,Kjøllefjord,70.9454167;27.3515139,KJØLLEFJORD,20,FINNMARK,2022,LEBESBY,B,Både gateadresser og postbokser,70.9459400,27.3555200
lakselv,108926.499,133,Open,9700,Lakselv,70.0457323;24.9676944,LAKSELV,20,FINNMARK,2020,PORSANGER PORSÁNGU PORSANKI,G,Gateadresser og stedsadresser,70.0563060,25.0009350
vadso,130277.74600000001,296,Open,9800,Vadsø,70.071905;29.749646,VADSØ,20,FINNMARK,2003,VADSØ,G,Gateadresser og stedsadresser,70.0731920,29.7523100
vardo,34096.726,370,Open,9950,Vardø,70.3711556;31.1198618,VARDØ,20,FINNMARK,2002,VARDØ,G,Gateadresser og stedsadresser,70.3703300,31.1058140
bagn,82182.082,427,Open,2930,Bagn,60.82302294;9.553333818,BAGN,05,OPPLAND,0540,SØR-AURDAL,G,Gateadresser og stedsadresser,60.8228460,9.5537070
beitostolen,106667.86200000001,396,Open,2953,Beitostølen,61.246471;8.910726,BEITOSTØLEN,05,OPPLAND,0544,ØYSTRE SLIDRE,G,Gateadresser og stedsadresser,61.2491400,8.9060100
brumunddal,242176.323,394,Open,2380,Brumunddal,60.884745;10.943198,BRUMUNDDAL,04,HEDMARK,0412,RINGSAKER,G,Gateadresser og stedsadresser,60.8849230,10.9417710
dokka,135183.106,123,Open,2870,Dokka,60.8345377;10.0742980,DOKKA,05,OPPLAND,0538,NORDRE LAND,G,Gateadresser og stedsadresser,60.8360030,10.0699140
dombas,88098.978,303,Open,2660,Dombås,62.0738271;9.1270977,DOMBÅS,05,OPPLAND,0511,DOVRE,G,Gateadresser og stedsadresser,62.0769400,9.1291100
elverum,382214.0360000001,215,Open,2408,Elverum,60.8831693;11.5615333,ELVERUM,04,HEDMARK,0427,ELVERUM,G,Gateadresser og stedsadresser,60.8936500,11.5610100
fagernes,288978.887,217,Open,2900,Fagernes,60.9861245;9.2351242,FAGERNES,05,OPPLAND,0542,NORD-AURDAL,G,Gateadresser og stedsadresser,60.9859530,9.2366970
flisa,135578.229,302,Open,2270,Flisa,60.612627;12.010825,FLISA,04,HEDMARK,0425,ÅSNES,G,Gateadresser og stedsadresser,60.6130490,12.0109470
gausdal,104762.72000000002,395,Open,2651,Østre Gausdal,61.226542;10.222113,ØSTRE GAUSDAL,05,OPPLAND,0522,GAUSDAL,G,Gateadresser og stedsadresser,61.2572000,10.1563000
gjovik,517347.945,223,Open,2821,Gjøvik,60.7999914;10.6936292,GJØVIK,05,OPPLAND,0502,GJØVIK,G,Gateadresser og stedsadresser,60.7955800,10.6793400
gran,283549.317,226,Open,2750,Gran,60.3566;10.5709,GRAN,05,OPPLAND,0534,GRAN,G,Gateadresser og stedsadresser,60.3587580,10.5709080
hamar,807946.3690000001,230,Open,2318,Hamar,60.7960849;11.0892890,HAMAR,04,HEDMARK,0403,HAMAR,B,Både gateadresser og postbokser,60.7942200,11.0742100
hov,75583.237,438,Open,2860,Hov,60.696;10.35,HOV,05,OPPLAND,0536,SØNDRE LAND,G,Gateadresser og stedsadresser,60.6993300,10.3509600
kongsvinger,169071.801,250,Open,2211,Kongsvinger,60.1864746;12.0046554,KONGSVINGER,04,HEDMARK,0402,KONGSVINGER,G,Gateadresser og stedsadresser,60.1749470,12.0239780
koppang,45232.05299999999,411,Open,2480,Koppang,61.57051;11.05105,KOPPANG,04,HEDMARK,0430,STOR-ELVDAL,G,Gateadresser og stedsadresser,61.5703770,11.0465810
lena,174592.04700000002,332,Open,2850,Lena,60.677429;10.817714,LENA,05,OPPLAND,0528,ØSTRE TOTEN,G,Gateadresser og stedsadresser,60.6745800,10.8132300
lillehammer,499234.38,263,Open,2609,Lillehammer,61.1152335;10.4658186,LILLEHAMMER,05,OPPLAND,0501,LILLEHAMMER,B,Både gateadresser og postbokser,61.1187400,10.4613800
lom,64760.755,364,Open,2686,Lom,61.837174;8.56895825,LOM,05,OPPLAND,0514,LOM,G,Gateadresser og stedsadresser,61.8375000,8.5697220
loten,89844.708,363,Open,2340,Løten,60.820298;11.33994,LØTEN,04,HEDMARK,0415,LØTEN,G,Gateadresser og stedsadresser,60.8194770,11.3422680
mo i nord-odal,28297.727999999996,101,Open,2133,Gardvik,60.4252324;11.640115,GARDVIK,04,HEDMARK,0418,NORD-ODAL,B,Både gateadresser og postbokser,60.4253800,11.6401000
moelv,142596.146,439,Open,2390,Moelv,60.92853467;10.7017779,MOELV,04,HEDMARK,0412,RINGSAKER,G,Gateadresser og stedsadresser,60.9296400,10.7009200
otta,124499.042,274,Open,2670,Otta,61.771682;9.541096,OTTA,05,OPPLAND,0517,SEL,G,Gateadresser og stedsadresser,61.7704540,9.5397270
raufoss,208588.79,352,Open,2830,Raufoss,60.7287409;10.6152540,RAUFOSS,05,OPPLAND,0529,VESTRE TOTEN,G,Gateadresser og stedsadresser,60.7261040,10.6134010
rena,99471.113,330,Open,2450,Rena,61.1325943;11.3713354,RENA,04,HEDMARK,0429,ÅMOT,G,Gateadresser og stedsadresser,61.1323600,11.3729750
ringebu,123152.729,380,Open,2630,Ringebu,61.5305;10.1393,RINGEBU,05,OPPLAND,0520,RINGEBU,G,Gateadresser og stedsadresser,61.5304600,10.1398900
rudshogda,218955.49,267,Open,2360,Rudshøgda,60.9093;10.8143,RUDSHØGDA,04,HEDMARK,0412,RINGSAKER,B,Både gateadresser og postbokser,60.9157000,10.8159000
skarnes,114165.70700000001,388,Open,2100,Skarnes,60.2552;11.6803,SKARNES,04,HEDMARK,0419,SØR-ODAL,G,Gateadresser og stedsadresser,60.2522280,11.6813420
stange,182306.77799999996,324,Open,2335,Stange,60.71693801;11.1913805007,STANGE,04,HEDMARK,0417,STANGE,G,Gateadresser og stedsadresser,60.7167230,11.1913350
trysil,158819.714,294,Open,2420,Trysil,61.3154033;12.2614273,TRYSIL,04,HEDMARK,0428,TRYSIL,G,Gateadresser og stedsadresser,61.3125130,12.2685100
tynset,161402.57,293,Open,2500,Tynset,62.2787449;10.7731633,TYNSET,04,HEDMARK,0437,TYNSET,G,Gateadresser og stedsadresser,62.2747920,10.7763430
vinstra,181242.60100000002,125,Open,2640,Vinstra,61.594717;9.725465,VINSTRA,05,OPPLAND,0516,NORD-FRON,G,Gateadresser og stedsadresser,61.5938230,9.7530420
vaga,55093.439000000006,349,Open,2680,Vågå,61.8768521;9.0963656,VÅGÅ,05,OPPLAND,0515,VÅGÅ,G,Gateadresser og stedsadresser,61.8734310,9.0946480
oyer,204586.195,408,Open,2636,Øyer,61.24622;10.43922,ØYER,05,OPPLAND,0521,ØYER,G,Gateadresser og stedsadresser,61.2649933,10.4129680
brattvag,60856.24,379,Open,6270,Brattvåg,62.5976;6.4459,BRATTVÅG,15,MØRE OG ROMSDAL,1534,HARAM,G,Gateadresser og stedsadresser,62.5945700,6.4460400
bruhagen,65072.032,420,Open,6530,Averøy,63.0521;7.6312,AVERØY,15,MØRE OG ROMSDAL,1554,AVERØY,G,Gateadresser og stedsadresser,63.0521600,7.6319900
digerneset,286889.895,109,Open,6260,Skodje,62.4921261;6.6060126,SKODJE,15,MØRE OG ROMSDAL,1529,SKODJE,G,Gateadresser og stedsadresser,62.5061600,6.6833800
elnesvagen,127270.557,333,Open,6440,Elnesvågen,62.8542;7.1606,ELNESVÅGEN,15,MØRE OG ROMSDAL,1548,FRÆNA,G,Gateadresser og stedsadresser,62.8536900,7.1626570
fosnavag,86828.726,347,Open,6090,Fosnavåg,62.3427505;5.6303175,FOSNAVÅG,15,MØRE OG ROMSDAL,1515,HERØY (M.R.),G,Gateadresser og stedsadresser,62.3377800,5.6374800
"kristiansund, futura",322192.823,137,Open,6517,Kristiansund N,63.110669;7.780337,KRISTIANSUND N,15,MØRE OG ROMSDAL,1505,KRISTIANSUND,G,Gateadresser og stedsadresser,63.1102900,7.7923400
"kristiansund, sentrum",243579.324,232,Open,6509,Kristiansund N,63.1093454;7.7322502,KRISTIANSUND N,15,MØRE OG ROMSDAL,1505,KRISTIANSUND,G,Gateadresser og stedsadresser,63.1125400,7.7301100
langevag,96008.893,432,Open,6030,Langevåg,62.440360702;6.18992,LANGEVÅG,15,MØRE OG ROMSDAL,1531,SULA,G,Gateadresser og stedsadresser,62.4408000,6.2033300
molde,605475.1950000001,244,Open,6415,Molde,62.7376594;7.1827361,MOLDE,15,MØRE OG ROMSDAL,1502,MOLDE,G,Gateadresser og stedsadresser,62.7409400,7.1794000
smola,29866.92,457,Open,6570,Smøla,63.46083081574632;8.01210,SMØLA,15,MØRE OG ROMSDAL,1573,SMØLA,G,Gateadresser og stedsadresser,63.4616100,7.9994600
stranda,70231.80000000002,329,Open,6200,Stranda,62.3078564;6.9459833,STRANDA,15,MØRE OG ROMSDAL,1525,STRANDA,G,Gateadresser og stedsadresser,62.3073780,6.9445990
sunndalsora,159865.45499999996,259,Open,6600,Sunndalsøra,62.6700166;8.5773302,SUNNDALSØRA,15,MØRE OG ROMSDAL,1563,SUNNDAL,G,Gateadresser og stedsadresser,62.6723510,8.5672220
surnadal,110736.61600000001,312,Open,6650,Surnadal,62.9759882;8.7280454,SURNADAL,15,MØRE OG ROMSDAL,1566,SURNADAL,G,Gateadresser og stedsadresser,62.9759900,8.7280500
sykkylven,108640.87199999999,348,Open,6230,Sykkylven,62.391866;6.582972,SYKKYLVEN,15,MØRE OG ROMSDAL,1528,SYKKYLVEN,G,Gateadresser og stedsadresser,62.3920000,6.5830420
ulsteinvik,210149.09100000001,183,Open,6065,Ulsteinvik,62.3428452;5.8480709,ULSTEINVIK,15,MØRE OG ROMSDAL,1516,ULSTEIN,G,Gateadresser og stedsadresser,62.3408050,5.8518610
vanylven,24142.502,367,Open,6143,Fiskå,62.10065;5.557601,FISKÅ,15,MØRE OG ROMSDAL,1511,VANYLVEN,G,Gateadresser og stedsadresser,62.1012800,5.5556000
vestnes,89093.264,384,Open,6390,Vestnes,62.623;7.0942,VESTNES,15,MØRE OG ROMSDAL,1535,VESTNES,G,Gateadresser og stedsadresser,62.6234700,7.0896280
volda,147069.652,357,Open,6100,Volda,62.1442;6.0723,VOLDA,15,MØRE OG ROMSDAL,1519,VOLDA,G,Gateadresser og stedsadresser,62.1459380,6.0699460
orsta,156512.22300000003,299,Open,6150,Ørsta,62.199407;6.124449,ØRSTA,15,MØRE OG ROMSDAL,1520,ØRSTA,G,Gateadresser og stedsadresser,62.2029000,6.1272000
"alesund, moa",707717.253,174,Open,6010,Ålesund,62.465445;6.351643,ÅLESUND,15,MØRE OG ROMSDAL,1504,ÅLESUND,G,Gateadresser og stedsadresser,62.4658920,6.3633010
"alesund, sentrum",356279.93899999995,245,Open,6002,Ålesund,62.471387;6.153867,ÅLESUND,15,MØRE OG ROMSDAL,1504,ÅLESUND,G,Gateadresser og stedsadresser,62.4749800,6.1602700
andalsnes,123225.52799999999,175,Open,6300,Åndalsnes,62.5692220;7.6861185,ÅNDALSNES,15,MØRE OG ROMSDAL,1539,RAUMA,G,Gateadresser og stedsadresser,62.5640110,7.6860740
andenes,86095.571,316,Open,8480,Andenes,69.3146923;16.1198382,ANDENES,18,NORDLAND,1871,ANDØY,G,Gateadresser og stedsadresser,69.3177440,16.1213350
"bodo, city nord",663268.869,339,Open,8008,Bodø,67.2772;14.4241,BODØ,18,NORDLAND,1804,BODØ,G,Gateadresser og stedsadresser,67.2791300,14.4106200
"bodo, hunstad",282442.25,469,Open,8019,Bodø,67.280830;14.544759,BODØ,18,NORDLAND,1804,BODØ,G,Gateadresser og stedsadresser,67.2764860,14.5103070
"bodo, sentrum",314150.708,204,Open,8006,Bodø,67.284066;14.3797767,BODØ,18,NORDLAND,1804,BODØ,G,Gateadresser og stedsadresser,67.2846500,14.3890000
bronnoysund,172654.06999999998,208,Open,8900,Brønnøysund,65.4728353;12.2082818,BRØNNØYSUND,18,NORDLAND,1813,BRØNNØY,G,Gateadresser og stedsadresser,65.4698450,12.2058110
bo i vesteralen,34876.03999999999,445,Open,8470,Bø I Vesterålen,68.62087;14.445598,BØ I VESTERÅLEN,18,NORDLAND,1867,BØ (N.),G,Gateadresser og stedsadresser,68.6177850,14.4625000
fauske,239953.638,212,Open,8200,Fauske,67.2583222;15.3957895,FAUSKE,18,NORDLAND,1841,FAUSKE,G,Gateadresser og stedsadresser,67.2589740,15.3915020
heroy,32626.095,443,Open,8850,Herøy,65.98360;12.2878,HERØY,18,NORDLAND,1818,HERØY (N.),G,Gateadresser og stedsadresser,65.9848000,12.2923200
korgen,52751.047,424,Open,8646,Korgen,66.08029;13.82500,KORGEN,18,NORDLAND,1832,HEMNES,G,Gateadresser og stedsadresser,66.0769770,13.8247300
leknes,258982.293,214,Open,8370,Leknes,68.1489;13.6174,LEKNES,18,NORDLAND,1860,VESTVÅGØY,G,Gateadresser og stedsadresser,68.1481820,13.6115460
lodingen,43683.264,369,Open,8410,Lødingen,68.414;15.9979,LØDINGEN,18,NORDLAND,1851,LØDINGEN,G,Gateadresser og stedsadresser,68.4108000,15.9919400
mo i rana,520562.434,240,Open,8622,Mo I Rana,66.3062122;14.1335968,MO I RANA,18,NORDLAND,1833,RANA,G,Gateadresser og stedsadresser,66.3125180,14.1324390
mosjoen,265853.637,248,Open,8656,Mosjøen,65.83990316;13.18992644,MOSJØEN,18,NORDLAND,1824,VEFSN,G,Gateadresser og stedsadresser,65.8354000,13.1956200
myre,82613.52300000003,359,Open,8430,Myre,68.914695;15.1011800,MYRE,18,NORDLAND,1868,ØKSNES,G,Gateadresser og stedsadresser,68.9152050,15.0887200
narvik,406413.914,256,Open,8514,Narvik,68.4410756;17.4356356,NARVIK,18,NORDLAND,1805,NARVIK,G,Gateadresser og stedsadresser,68.4144800,17.4342900
nesna,26974.077,108,Open,8700,Nesna,66.1997614;13.0234424,NESNA,18,NORDLAND,1828,NESNA,G,Gateadresser og stedsadresser,66.1974200,13.0236900
rognan,85882.62499999999,328,Open,8250,Rognan,67.1020723;15.3972889,ROGNAN,18,NORDLAND,1840,SALTDAL,G,Gateadresser og stedsadresser,67.0898500,15.3788100
sandnessjoen,193895.114,268,Open,8800,Sandnessjøen,66.02200791; 12.6339,SANDNESSJØEN,18,NORDLAND,1820,ALSTAHAUG,G,Gateadresser og stedsadresser,66.0126300,12.6063200
sortland,316365.033,272,Open,8400,Sortland,68.6943635;15.4161171,SORTLAND,18,NORDLAND,1870,SORTLAND,G,Gateadresser og stedsadresser,68.6970190,15.4135290
steigen,59628.591,456,Open,8283,Leinesfjord,67.77607509;15.01445621,LEINESFJORD,18,NORDLAND,1848,STEIGEN,G,Gateadresser og stedsadresser,67.7755000,15.0154000
stokmarknes,135983.381,341,Open,8450,Stokmarknes,68.5671571;14.9123333,STOKMARKNES,18,NORDLAND,1866,HADSEL,B,Både gateadresser og postbokser,68.5676700,14.9131400
svolvar,255329.996,284,Open,8300,Svolvær,68.2333;14.559,SVOLVÆR,18,NORDLAND,1865,VÅGAN,G,Gateadresser og stedsadresser,68.2322400,14.5645240
ornes,108066.39499999999,185,Open,8150,Ørnes,66.87245;13.70553,ØRNES,18,NORDLAND,1837,MELØY,G,Gateadresser og stedsadresser,66.8742900,13.7119900
"oslo, aker brygge",471466.073,114,Open,250,Oslo,59.9106345;10.7259311,OSLO,03,OSLO,0301,OSLO,G,Gateadresser og stedsadresser,59.9099300,10.7250700
"oslo, alna",304473.638,117,Open,668,Oslo,59.9258197;10.8469616,OSLO,03,OSLO,0301,OSLO,G,Gateadresser og stedsadresser,59.9270700,10.8449800
"oslo, bjorvika, apnet 14. mars 2024",101420.90000000001,NA,NA,NA,NA,NA,NA,NA,NA,NA,NA,NA,NA,NA,NA
"oslo, briskeby",309009.337,104,Open,259,Oslo,59.9206481;10.7169757,OSLO,03,OSLO,0301,OSLO,G,Gateadresser og stedsadresser,59.9211000,10.7170400
"oslo, bryn",276547.662,475,Open,667,Oslo,59.9031958;10.8224587,OSLO,03,OSLO,0301,OSLO,G,Gateadresser og stedsadresser,59.9069000,10.8206000
"oslo, boler",230605.098,440,Open,689,Oslo,59.8830397;10.8458152,OSLO,03,OSLO,0301,OSLO,G,Gateadresser og stedsadresser,59.8796800,10.8527300
"oslo, carl berner",252411.72900000002,459,Open,571,Oslo,59.9277545;10.7791509,OSLO,03,OSLO,0301,OSLO,G,Gateadresser og stedsadresser,59.9255600,10.7751850
"oslo, cc vest",1130306.808,127,Open,283,Oslo,59.9176495;10.6363590,OSLO,03,OSLO,0301,OSLO,G,Gateadresser og stedsadresser,59.9179300,10.6441700
"oslo, frogner",388469.26900000003,111,Open,265,Oslo,59.9188589;10.7073207,OSLO,03,OSLO,0301,OSLO,G,Gateadresser og stedsadresser,59.9184300,10.7047300
"oslo, grorud",247303.77800000002,389,Open,963,Oslo,59.96019;10.88067,OSLO,03,OSLO,0301,OSLO,G,Gateadresser og stedsadresser,59.9641000,10.8819200
"oslo, grunerlokka",395311.877,115,Open,551,Oslo,59.9211573;10.7571369,OSLO,03,OSLO,0301,OSLO,G,Gateadresser og stedsadresser,59.9217700,10.7564700
"oslo, gronland basar",293979.60699999996,361,Open,190,Oslo,59.9134;10.7642,OSLO,03,OSLO,0301,OSLO,G,Gateadresser og stedsadresser,59.9120400,10.7656600
"oslo, hasle torg",362458.49900000007,182,Open,579,Oslo,59.9235696;10.7927,OSLO,03,OSLO,0301,OSLO,G,Gateadresser og stedsadresser,59.9257700,10.7941500
"oslo, holmlia",180324.69799999997,122,Open,1255,Oslo,59.8348282;10.794902,OSLO,03,OSLO,0301,OSLO,G,Gateadresser og stedsadresser,59.8346860,10.7957410
"oslo, kiellandsplass",388495.608,178,Open,175,Oslo,59.92821;10.7505016327,OSLO,03,OSLO,0301,OSLO,G,Gateadresser og stedsadresser,59.9265200,10.7512700
"oslo, lambertseter",675368.9330000001,374,Open,1153,Oslo,59.87490;10.81045,OSLO,03,OSLO,0301,OSLO,G,Gateadresser og stedsadresser,59.8779300,10.8116500
"oslo, linderud",317676.534,132,Open,594,Oslo,59.9432411;10.8354604,OSLO,03,OSLO,0301,OSLO,G,Gateadresser og stedsadresser,59.9417300,10.8358700
"oslo, majorstuen",539999.7270000001,136,Open,369,Oslo,59.9307;10.71,OSLO,03,OSLO,0301,OSLO,G,Gateadresser og stedsadresser,59.9320800,10.7065200
"oslo, manglerud",331399.572,138,Open,679,Oslo,59.8972890;10.8128575,OSLO,03,OSLO,0301,OSLO,G,Gateadresser og stedsadresser,59.8961600,10.8142900
"oslo, mortensrud",183718.734,403,Open,1281,Oslo,59.8484191895;10.8291940,OSLO,03,OSLO,0301,OSLO,G,Gateadresser og stedsadresser,59.8450600,10.8281700
"oslo, nydalen",172440.44700000001,417,Open,484,Oslo,59.949113;10.7663752,OSLO,03,OSLO,0301,OSLO,G,Gateadresser og stedsadresser,59.9484700,10.7676900
"oslo, oslo city",627185.5140000001,143,Open,50,Oslo,59.9126054;10.7515334,OSLO,03,OSLO,0301,OSLO,G,Gateadresser og stedsadresser,59.9126700,10.7522400
"oslo, oslo s",518410.095,118,Open,154,Oslo,59.9108801;10.7507337,OSLO,03,OSLO,0301,OSLO,G,Gateadresser og stedsadresser,59.9113800,10.7481100
"oslo, paleet",287198.75100000005,141,Open,162,Oslo,59.9142166;10.7393055,OSLO,03,OSLO,0301,OSLO,G,Gateadresser og stedsadresser,59.9135790,10.7380350
"oslo, roa",500006.493,335,Open,751,Oslo,59.9461948;10.6433335,OSLO,03,OSLO,0301,OSLO,G,Gateadresser og stedsadresser,59.9424700,10.6394900
"oslo, sandaker",482385.165,152,Open,477,Oslo,59.9384265;10.7684746,OSLO,03,OSLO,0301,OSLO,G,Gateadresser og stedsadresser,59.9364400,10.7647300
"oslo, skoyen",609928.772,393,Open,277,Oslo,59.9211216;10.677531,OSLO,03,OSLO,0301,OSLO,G,Gateadresser og stedsadresser,59.9208500,10.6777600
"oslo, steen & strom",232917.03,286,Open,157,Oslo,59.9117037;10.7431080,OSLO,03,OSLO,0301,OSLO,G,Gateadresser og stedsadresser,59.9102230,10.7396130
"oslo, storo",578220.0650000001,161,Open,485,Oslo,59.9472928;10.7738132,OSLO,03,OSLO,0301,OSLO,G,Gateadresser og stedsadresser,59.9491500,10.7731500
"oslo, stovner",283396.186,162,Open,985,Oslo,59.9621379;10.9245156,OSLO,03,OSLO,0301,OSLO,G,Gateadresser og stedsadresser,59.9617700,10.9261900
"oslo, thereses gate",NA,NA,NA,NA,NA,NA,NA,NA,NA,NA,NA,NA,NA,NA,NA
"oslo, tveita",419395.24299999996,145,Open,671,Oslo,59.9138363;10.8418900,OSLO,03,OSLO,0301,OSLO,G,Gateadresser og stedsadresser,59.9108800,10.8443600
"oslo, ullevaal stadion",470632.665,334,Open,855,Oslo,59.9501652;10.7348884,OSLO,03,OSLO,0301,OSLO,G,Gateadresser og stedsadresser,59.9532300,10.7337200
"oslo, valkyrien",367858.382,471,Open,366,Oslo,59.9281069;10.7187714,OSLO,03,OSLO,0301,OSLO,G,Gateadresser og stedsadresser,59.9283400,10.7180800
"oslo, vinderen",299933.973,454,Open,370,Oslo,59.9421870311;10.704102,OSLO,03,OSLO,0301,OSLO,G,Gateadresser og stedsadresser,59.9373400,10.7016700
aksdal,208713.142,103,Open,5570,Aksdal,59.42203;5.44446,AKSDAL,11,ROGALAND,1146,TYSVÆR,G,Gateadresser og stedsadresser,59.4214610,5.4455280
bryne,300424.384,326,Open,4340,Bryne,58.73560;5.63999,BRYNE,11,ROGALAND,1121,TIME,G,Gateadresser og stedsadresser,58.7346280,5.6481140
egersund,241781.89,209,Open,4370,Egersund,58.4519924;6.0035543,EGERSUND,11,ROGALAND,1101,EIGERSUND,G,Gateadresser og stedsadresser,58.4513300,6.0000400
haugesund,461136.74399999995,218,Open,5528,Haugesund,59.4109400;5.2737099,HAUGESUND,11,ROGALAND,1106,HAUGESUND,G,Gateadresser og stedsadresser,59.4097800,5.2756200
jorpeland,198898.02900000004,308,Open,4100,Jørpeland,59.0216289;6.0415989,JØRPELAND,11,ROGALAND,1130,STRAND,G,Gateadresser og stedsadresser,59.0257400,6.0418700
"karmoy, kopervik",270386.467,168,Open,4250,Kopervik,59.2804227;5.3041950,KOPERVIK,11,ROGALAND,1149,KARMØY,G,Gateadresser og stedsadresser,59.2822600,5.3055810
"karmoy, oasen",519833.807,449,Open,5542,Karmsund,59.3771667541609;5.30601,KARMSUND,11,ROGALAND,1149,KARMØY,G,Gateadresser og stedsadresser,59.3778350,5.3068260
klepp,353136.14099999995,385,Open,4351,Kleppe,58.7794;5.6257,NA,NA,NA,NA,NA,NA,NA,NA,NA
narbo,170139.717,431,Open,4365,Nærbø,58.6681518555;5.641,NÆRBØ,11,ROGALAND,1119,HÅ,G,Gateadresser og stedsadresser,58.6661830,5.6395480
randaberg,269547.26100000006,399,Open,4070,Randaberg,58.99831;5.61754,RANDABERG,11,ROGALAND,1127,RANDABERG,G,Gateadresser og stedsadresser,58.9995110,5.6177040
sandnes sentrum,734187.9720000001,NA,NA,NA,NA,NA,NA,NA,NA,NA,NA,NA,NA,NA,NA
"sandnes, kvadrat",653551.7080000001,116,Open,4313,Sandnes,58.876707;5.721903,SANDNES,11,ROGALAND,1102,SANDNES,G,Gateadresser og stedsadresser,58.8687100,5.7313500
sauda,93884.73799999998,147,Open,4200,Sauda,59.6497472;6.3551339,SAUDA,11,ROGALAND,1135,SAUDA,G,Gateadresser og stedsadresser,59.6507010,6.3540850
"sola, solakrossen",433717.875,355,Open,4050,Sola,58.8821927;5.65257310,SOLA,11,ROGALAND,1124,SOLA,G,Gateadresser og stedsadresser,58.8861420,5.6480120
"sola, tananger, apnet 3. oktober",39734.73999999999,NA,NA,NA,NA,NA,NA,NA,NA,NA,NA,NA,NA,NA,NA
"stavanger, herbarium",333243.639,227,Open,4005,Stavanger,58.9699142;5.7277930,STAVANGER,11,ROGALAND,1103,STAVANGER,G,Gateadresser og stedsadresser,58.9707100,5.7275300
"stavanger, hillevag",605762.19,221,Open,4016,Stavanger,58.9479866;5.7391150,STAVANGER,11,ROGALAND,1103,STAVANGER,G,Gateadresser og stedsadresser,58.9460400,5.7377500
"stavanger, hinna",217138.614,436,Open,4020,Stavanger,58.9149059;5.7293891,STAVANGER,11,ROGALAND,1103,STAVANGER,G,Gateadresser og stedsadresser,58.9216400,5.7201300
"stavanger, madla",578292.915,416,Open,4042,Hafrsfjord,58.952;5.679,HAFRSFJORD,11,ROGALAND,1103,STAVANGER,G,Gateadresser og stedsadresser,58.9527400,5.6687200
"stavanger, tasta",276528.28,450,Open,4027,Stavanger,58.984417;5.689802,STAVANGER,11,ROGALAND,1103,STAVANGER,G,Gateadresser og stedsadresser,58.9839200,5.6883900
"stavanger, verksgata",463956.767,231,Open,4013,Stavanger,58.971384;5.73688,STAVANGER,11,ROGALAND,1103,STAVANGER,G,Gateadresser og stedsadresser,58.9710300,5.7430140
suldal,38944.66499999999,106,Open,4230,Sand,59.483745;6.25048,SAND,11,ROGALAND,1134,SULDAL,G,Gateadresser og stedsadresser,59.4845620,6.2510920
olen,87793.05,400,Open,5580,Ølen,59.6037975;5.8073418,ØLEN,11,ROGALAND,1160,VINDAFJORD,G,Gateadresser og stedsadresser,59.6061400,5.8196600
algard,242054.96800000002,405,Open,4330,Ålgård,58.7702331543;5.846295356,ÅLGÅRD,11,ROGALAND,1122,GJESDAL,G,Gateadresser og stedsadresser,58.7674550,5.8497050
bo i telemark,175067.31400000004,166,Open,3800,Bø I Telemark,59.411319;9.0708273,BØ I TELEMARK,08,TELEMARK,0821,BØ (TEL.),G,Gateadresser og stedsadresser,59.4135350,9.0654910
drangedal,70802.405,365,Open,3750,Drangedal,59.090148;9.064751,DRANGEDAL,08,TELEMARK,0817,DRANGEDAL,G,Gateadresser og stedsadresser,59.0884280,9.0651800
kragero,272755.364,257,Open,3770,Kragerø,58.8694714;9.4152940,KRAGERØ,08,TELEMARK,0815,KRAGERØ,G,Gateadresser og stedsadresser,58.8688700,9.4117900
notodden,249673.761,273,Open,3674,Notodden,59.557;9.2551,NOTODDEN,08,TELEMARK,0807,NOTODDEN,G,Gateadresser og stedsadresser,59.5600400,9.2600500
"porsgrunn, down town",342285.55399999995,113,Open,3921,Porsgrunn,59.137276 ; 9.640192,PORSGRUNN,08,TELEMARK,0805,PORSGRUNN,G,Gateadresser og stedsadresser,59.1375000,9.6457900
"porsgrunn, jernbanegata",264157.15900000004,277,Open,3916,Porsgrunn,59.139461;9.6548329,PORSGRUNN,08,TELEMARK,0805,PORSGRUNN,G,Gateadresser og stedsadresser,59.1367700,9.6573200
rjukan,105501.09799999998,281,Open,3660,Rjukan,59.8792932;8.5914546,RJUKAN,08,TELEMARK,0826,TINN,G,Gateadresser og stedsadresser,59.8797900,8.5798900
seljord,113486.84,320,Open,3840,Seljord,59.4815588;8.6285004,SELJORD,08,TELEMARK,0828,SELJORD,G,Gateadresser og stedsadresser,59.4854500,8.6314000
"skien, gratenmoen",496904.90900000004,181,Open,3734,Skien,59.1858561;9.6138639,SKIEN,08,TELEMARK,0806,SKIEN,G,Gateadresser og stedsadresser,59.1826000,9.6098000
"skien, lietorvet",362590.88700000005,290,Open,3717,Skien,59.2104061;9.6049850,SKIEN,08,TELEMARK,0806,SKIEN,G,Gateadresser og stedsadresser,59.2139400,9.6036700
stathelle,334774.039,128,Open,3960,Stathelle,59.0458676;9.6938645,STATHELLE,08,TELEMARK,0814,BAMBLE,G,Gateadresser og stedsadresser,59.0455880,9.6947480
ulefoss,57025.295000000006,353,Open,3830,Ulefoss,59.2808;9.2684,ULEFOSS,08,TELEMARK,0819,NOME,G,Gateadresser og stedsadresser,59.2841230,9.2632340
vinje,76820.477,305,Open,3890,Vinje,59.5684789;7.9896919,VINJE,08,TELEMARK,0834,VINJE,G,Gateadresser og stedsadresser,59.5691000,7.9881000
bardufoss,162338.317,278,Open,9325,Bardufoss,69.064059087;18.504678010,BARDUFOSS,19,TROMS,1924,MÅLSELV,G,Gateadresser og stedsadresser,69.0652970,18.5103320
evenskjer,104029.451,413,Open,9440,Evenskjer,68.5837542;16.571922,EVENSKJER,19,TROMS,1913,SKÅNLAND,G,Gateadresser og stedsadresser,68.5836970,16.5722540
finnsnes,312229.6820000001,216,Open,9300,Finnsnes,69.230187;17.977495,FINNSNES,19,TROMS,1931,LENVIK,G,Gateadresser og stedsadresser,69.2303090,17.9854770
harstad,490756.9380000001,224,Open,9405,Harstad,68.7989869;16.5456354,HARSTAD,19,TROMS,1903,HARSTAD,G,Gateadresser og stedsadresser,68.7995910,16.5445090
lyngen,41538.223,444,Open,9060,Lyngseidet,69.5747451;20.2069277,LYNGSEIDET,19,TROMS,1938,LYNGEN,G,Gateadresser og stedsadresser,69.5756520,20.2191350
setermoen,70656.55399999999,360,Open,9360,Bardu,68.861521;18.345065,BARDU,19,TROMS,1922,BARDU,G,Gateadresser og stedsadresser,68.8614280,18.3367400
sjovegan,54437.784,368,Open,9350,Sjøvegan,68.8748;17.8348,SJØVEGAN,19,TROMS,1923,SALANGEN,G,Gateadresser og stedsadresser,68.8726000,17.8474000
skjervoy,37412.674,327,Open,9180,Skjervøy,70.0330362;20.9742469,SKJERVØY,19,TROMS,1941,SKJERVØY,G,Gateadresser og stedsadresser,70.0326000,20.9744000
storslett,127460.80500000001,269,Open,9151,Storslett,69.76861;21.003499,STORSLETT,19,TROMS,1942,NORDREISA,G,Gateadresser og stedsadresser,69.7695600,21.0252840
storsteinnes,80753.97899999999,317,Open,9050,Storsteinnes,69.239712;19.227018,STORSTEINNES,19,TROMS,1933,BALSFJORD,G,Gateadresser og stedsadresser,69.2400460,19.2255160
"tromso, langnes",864760.398,282,Open,9015,Tromsø,69.6746614;18.9203755,TROMSØ,19,TROMS,1902,TROMSØ,G,Gateadresser og stedsadresser,69.6757700,18.9365500
"tromso, sentrum",492755.94100000005,292,Open,9008,Tromsø,69.6461;18.9545,TROMSØ,19,TROMS,1902,TROMSØ,G,Gateadresser og stedsadresser,69.6509100,18.9561300
"tromso, tromsdalen",472422.497,288,Open,9020,Tromsdalen,69.6399623;18.9708618,TROMSDALEN,19,TROMS,1902,TROMSØ,G,Gateadresser og stedsadresser,69.6450280,18.9960650
bjugn,59975.853,428,Open,7160,Bjugn,63.765171051;9.811869621,BJUGN,16,SØR-TRØNDELAG,1627,BJUGN,G,Gateadresser og stedsadresser,63.7651140,9.8098040
brekstad,139094.817,206,Open,7130,Brekstad,63.6888835;9.6661806,BREKSTAD,16,SØR-TRØNDELAG,1621,ØRLAND,G,Gateadresser og stedsadresser,63.6888000,9.6600500
"buvika, apent 24. oktober",20746.524999999998,NA,NA,NA,NA,NA,NA,NA,NA,NA,NA,NA,NA,NA,NA
frosta,45332.595,465,Open,7633,Frosta,63.58850889;10.74017901,FROSTA,17,NORD-TRØNDELAG,1717,FROSTA,G,Gateadresser og stedsadresser,63.5870600,10.7405950
froya,90037.515,358,Open,7260,Sistranda,63.728833;8.828094,SISTRANDA,16,SØR-TRØNDELAG,1620,FRØYA,G,Gateadresser og stedsadresser,63.7284500,8.8334100
grong,81193.161,315,Open,7870,Grong,64.4645233;12.3147064,GRONG,17,NORD-TRØNDELAG,1742,GRONG,G,Gateadresser og stedsadresser,64.4645200,12.3147100
hitra,103181.80500000002,314,Open,7240,Hitra,63.6019304;8.9770929,HITRA,16,SØR-TRØNDELAG,1617,HITRA,G,Gateadresser og stedsadresser,63.6020300,8.9679100
inderoy,63629.796,446,Open,7670,Inderøy,63.8735416;11.2972103,INDERØY,17,NORD-TRØNDELAG,1756,INDERØY,G,Gateadresser og stedsadresser,63.8709000,11.2999000
kolvereid,56899.56,243,Open,7970,Kolvereid,64.865348;11.604309,KOLVEREID,17,NORD-TRØNDELAG,1751,NÆRØY,G,Gateadresser og stedsadresser,64.8629600,11.6040200
kyrksaterora,80149.236,313,Open,7200,Kyrksæterøra,63.291027;9.088997,KYRKSÆTERØRA,16,SØR-TRØNDELAG,1612,HEMNE,G,Gateadresser og stedsadresser,63.2936500,9.0778200
levanger,297650.443,236,Open,7600,Levanger,63.74901167;11.3023626,LEVANGER,17,NORD-TRØNDELAG,1719,LEVANGER,G,Gateadresser og stedsadresser,63.7464000,11.2996000
malvik,184208.481,383,Open,7550,Hommelvik,63.420483;10.755336,HOMMELVIK,16,SØR-TRØNDELAG,1663,MALVIK,G,Gateadresser og stedsadresser,63.4114280,10.7942990
"melhus, butikken stengt i 2023 pga kranvelt",180916.049,NA,NA,NA,NA,NA,NA,NA,NA,NA,NA,NA,NA,NA,NA
namsos,323104.26,252,Open,7800,Namsos,64.468429;11.491356,NAMSOS,17,NORD-TRØNDELAG,1703,NAMSOS,G,Gateadresser og stedsadresser,64.4675040,11.4917850
oppdal,250916.345,260,Open,7340,Oppdal,62.5944821;9.6902327,OPPDAL,16,SØR-TRØNDELAG,1634,OPPDAL,G,Gateadresser og stedsadresser,62.5935780,9.6861650
orkanger,387377.827,262,Open,7300,Orkanger,63.2971;9.8446,ORKANGER,16,SØR-TRØNDELAG,1638,ORKDAL,G,Gateadresser og stedsadresser,63.3085700,9.8542200
rissa,87868.63,340,Open,7100,Rissa,63.5842865;9.9617790,RISSA,16,SØR-TRØNDELAG,1624,RISSA,G,Gateadresser og stedsadresser,63.5841720,9.9592300
roros,165133.904,264,Open,7374,Røros,62.5756317;11.3811411,RØROS,16,SØR-TRØNDELAG,1640,RØROS,G,Gateadresser og stedsadresser,62.5744100,11.3790960
rorvik,101952.481,382,Open,7900,Rørvik,64.8621;11.2408,RØRVIK,17,NORD-TRØNDELAG,1750,VIKNA,B,Både gateadresser og postbokser,64.8655600,11.2348200
selbu,56877.119,423,Open,7580,Selbu,63.2193031311;11.04035377,SELBU,16,SØR-TRØNDELAG,1664,SELBU,G,Gateadresser og stedsadresser,63.2259400,11.0350800
steinkjer,439011.763,276,Open,7714,Steinkjer,64.0102864;11.4925281,STEINKJER,17,NORD-TRØNDELAG,1702,STEINKJER,G,Gateadresser og stedsadresser,64.0083000,11.4952000
stjordal,399170.426,280,Open,7500,Stjørdal,63.4689457;10.9242615,STJØRDAL,17,NORD-TRØNDELAG,1714,STJØRDAL,G,Gateadresser og stedsadresser,63.4695400,10.9207210
storen,110201.7,189,Open,7290,Støren,63.0479816;10.2832379,STØREN,16,SØR-TRØNDELAG,1648,MIDTRE GAULDAL,G,Gateadresser og stedsadresser,63.0371000,10.2840700
"trondheim, byhaven",211446.65000000002,140,Open,7011,Trondheim,63.4333497;10.3962676,TRONDHEIM,16,SØR-TRØNDELAG,1601,TRONDHEIM,G,Gateadresser og stedsadresser,63.4322400,10.3967900
"trondheim, byasen",357771.47599999997,401,Open,7020,Trondheim,63.4173929;10.3539599,TRONDHEIM,16,SØR-TRØNDELAG,1601,TRONDHEIM,G,Gateadresser og stedsadresser,63.4201400,10.3566800
"trondheim, city syd",580361.701,120,Open,7075,Tiller,63.3682271;10.3809509,TILLER,16,SØR-TRØNDELAG,1601,TRONDHEIM,G,Gateadresser og stedsadresser,63.3639000,10.3858000
"trondheim, heimdal",295726.309,460,Open,7080,Heimdal,63.3515349;10.354883,HEIMDAL,16,SØR-TRØNDELAG,1601,TRONDHEIM,G,Gateadresser og stedsadresser,63.3477400,10.3537990
"trondheim, lade",579853.841,336,Open,7041,Trondheim,63.4433483;10.4478454,TRONDHEIM,16,SØR-TRØNDELAG,1601,TRONDHEIM,G,Gateadresser og stedsadresser,63.4444000,10.4457900
"trondheim, nedre elvehavn",346529.887,322,Open,7014,Trondheim,63.4354311;10.4125994,TRONDHEIM,16,SØR-TRØNDELAG,1601,TRONDHEIM,G,Gateadresser og stedsadresser,63.4319900,10.3990400
"trondheim, sirkus shopping",394327.99899999995,146,Open,7044,Trondheim,63.436258;10.456246,TRONDHEIM,16,SØR-TRØNDELAG,1601,TRONDHEIM,G,Gateadresser og stedsadresser,63.4360810,10.4559800
"trondheim, trondheim torg",488800.108,160,Open,7013,Trondheim,63.429574;10.393581,TRONDHEIM,16,SØR-TRØNDELAG,1601,TRONDHEIM,G,Gateadresser og stedsadresser,63.4267800,10.4020200
"trondheim, valentinlyst",681058.6540000001,180,Open,7046,Trondheim,63.4249487;10.4424205,TRONDHEIM,16,SØR-TRØNDELAG,1601,TRONDHEIM,G,Gateadresser og stedsadresser,63.4205510,10.4466250
verdal,190135.72,337,Open,7650,Verdal,63.7918493;11.4852398,VERDAL,17,NORD-TRØNDELAG,1721,VERDAL,G,Gateadresser og stedsadresser,63.7933000,11.4817000
afjord,69360.901,402,Open,7170,Åfjord,63.9606778;10.2241256,ÅFJORD,16,SØR-TRØNDELAG,1630,ÅFJORD,G,Gateadresser og stedsadresser,63.9647500,10.2111100
andebu,90309.912,425,Open,3158,Andebu,59.3046;10.1767,ANDEBU,07,VESTFOLD,0719,ANDEBU,G,Gateadresser og stedsadresser,59.3038500,10.1819400
holmestrand,201345.19600000003,233,Open,3080,Holmestrand,59.4870965;10.3187023,HOLMESTRAND,07,VESTFOLD,0702,HOLMESTRAND,G,Gateadresser og stedsadresser,59.4872860,10.3003260
horten,354878.007,237,Open,3187,Horten,59.4151698;10.4862476,HORTEN,07,VESTFOLD,0701,HORTEN,G,Gateadresser og stedsadresser,59.4090200,10.4817000
larvik,528793.835,258,Open,3256,Larvik,59.0537;10.0292,LARVIK,07,VESTFOLD,0709,LARVIK,G,Gateadresser og stedsadresser,59.0544800,10.0276100
notteroy,664546.811,142,Open,3120,Nøtterøy,59.2525672;10.4184750,NØTTERØY,07,VESTFOLD,0722,NØTTERØY,G,Gateadresser og stedsadresser,59.2458700,10.4210100
re,263354.045,381,Open,3174,Revetal,59.3725;10.2696,REVETAL,07,VESTFOLD,0716,RE,G,Gateadresser og stedsadresser,59.3715820,10.2640200
sande,191606.562,407,Open,3070,Sande I Vestfold,59.58743;10.20635,SANDE I VESTFOLD,07,VESTFOLD,0713,SANDE (V.),G,Gateadresser og stedsadresser,59.5851520,10.2080800
sandefjord,906087.7359999999,283,Open,3210,Sandefjord,59.1293529;10.2252665,SANDEFJORD,07,VESTFOLD,0706,SANDEFJORD,G,Gateadresser og stedsadresser,59.1308000,10.2269400
stavern,309100.274,404,Open,3290,Stavern,59.000063;10.034292,STAVERN,07,VESTFOLD,0709,LARVIK,G,Gateadresser og stedsadresser,58.9881040,10.0092100
stokke,272692.616,398,Open,3160,Stokke,59.22133;10.30301,STOKKE,07,VESTFOLD,0720,STOKKE,G,Gateadresser og stedsadresser,59.2232840,10.2983550
tjome,215651.798,376,Open,3145,Tjøme,59.1225;10.399,TJØME,07,VESTFOLD,0723,TJØME,G,Gateadresser og stedsadresser,59.1171210,10.3940960
tonsberg,573148.3840000001,295,Open,3110,Tønsberg,59.2692842;10.4117630,TØNSBERG,07,VESTFOLD,0704,TØNSBERG,G,Gateadresser og stedsadresser,59.2659600,10.4187100
asgardstrand,309929.805,463,Open,3179,Åsgårdstrand,59.34968406;10.46005725,ÅSGÅRDSTRAND,07,VESTFOLD,0701,HORTEN,G,Gateadresser og stedsadresser,59.3482000,10.4640200
askvoll,60224.57699999999,414,Open,6980,Askvoll,61.3459407;5.0627044,ASKVOLL,14,SOGN OG FJORDANE,1428,ASKVOLL,G,Gateadresser og stedsadresser,61.3495000,5.0769100
askoy,316864.497,148,Open,5300,Kleppestø,60.4101;5.2271,KLEPPESTØ,12,HORDALAND,1247,ASKØY,G,Gateadresser og stedsadresser,60.4123690,5.2218100
austevoll,78239.712,410,Open,5397,Bekkjarvik,60.007139;5.2049669,BEKKJARVIK,12,HORDALAND,1244,AUSTEVOLL,G,Gateadresser og stedsadresser,60.0071390,5.2047840
"bergen, arna",240361.136,165,Open,5260,Indre Arna,60.4213188;5.4650458,INDRE ARNA,12,HORDALAND,1201,BERGEN,G,Gateadresser og stedsadresser,60.4308000,5.4688500
"bergen, bergen storsenter",667340.116,121,Open,5015,Bergen,60.3892401;5.3318259,BERGEN,12,HORDALAND,1201,BERGEN,G,Gateadresser og stedsadresser,60.3901000,5.3214000
"bergen, fyllingsdalen",496646.70200000005,149,Open,5147,Fyllingsdalen,60.34911;5.291805,FYLLINGSDALEN,12,HORDALAND,1201,BERGEN,G,Gateadresser og stedsadresser,60.3493540,5.2905450
"bergen, lagunen",716075.5549999999,331,Open,5239,Rådal,60.297116;5.331159,RÅDAL,12,HORDALAND,1201,BERGEN,G,Gateadresser og stedsadresser,60.2974460,5.3302150
"bergen, laksevag",247641.378,373,Open,5163,Laksevåg,60.389466;5.286462,LAKSEVÅG,12,HORDALAND,1201,BERGEN,G,Gateadresser og stedsadresser,60.3918930,5.2769420
"bergen, nesttun",453920.048,163,Open,5221,Nesttun,60.3174630;5.3542358,NESTTUN,12,HORDALAND,1201,BERGEN,G,Gateadresser og stedsadresser,60.3131570,5.3466940
"bergen, sletten",528883.157,130,Open,5081,Bergen,60.3565955;5.3592388,BERGEN,12,HORDALAND,1201,BERGEN,G,Gateadresser og stedsadresser,60.3436100,5.3592210
"bergen, valkendorfsgate",610282.889,NA,NA,NA,NA,NA,NA,NA,NA,NA,NA,NA,NA,NA,NA
"bergen, vestkanten",476284.086,170,Open,5171,Loddefjord,60.363352;5.233634,LODDEFJORD,12,HORDALAND,1201,BERGEN,G,Gateadresser og stedsadresser,60.3632200,5.2336200
"bergen, asane",482198.723,197,Open,5116,Ulset,60.465332;5.322082,ULSET,12,HORDALAND,1201,BERGEN,G,Gateadresser og stedsadresser,60.4619000,5.3234700
"bergen, asane horisont",553066.33,434,Open,5130,Nyborg,60.470404;5.323168,NYBORG,12,HORDALAND,1201,BERGEN,G,Gateadresser og stedsadresser,(blank),(blank)
bomlo,133251.254,309,Open,5430,Bremnes,59.7933330;5.1716050,BREMNES,12,HORDALAND,1219,BØMLO,G,Gateadresser og stedsadresser,59.7925170,5.1722170
eikelandsosen,38713.797000000006,448,Open,5640,Eikelandsosen,60.2400685;5.747474,EIKELANDSOSEN,12,HORDALAND,1241,FUSA,G,Gateadresser og stedsadresser,60.2404500,5.7466200
etne,91963.43100000001,429,Open,5590,Etne,59.66439196;5.94064235,ETNE,12,HORDALAND,1211,ETNE,G,Gateadresser og stedsadresser,59.6645980,5.9338620
fitjar,35903.024,129,Open,5419,Fitjar,59.918156;5.315838,FITJAR,12,HORDALAND,1222,FITJAR,G,Gateadresser og stedsadresser,59.9177530,5.3163530
floro,186688.897,164,Open,6900,Florø,61.6007736;5.037078,FLORØ,14,SOGN OG FJORDANE,1401,FLORA,G,Gateadresser og stedsadresser,61.5999880,5.0328110
forde,367327.81799999997,251,Open,6800,Førde,61.4526;5.8506,FØRDE,14,SOGN OG FJORDANE,1432,FØRDE,G,Gateadresser og stedsadresser,61.4514900,5.8564100
husnes,146710.06399999998,179,Open,5460,Husnes,59.8623780;5.7542335,HUSNES,12,HORDALAND,1224,KVINNHERAD,G,Gateadresser og stedsadresser,59.8601600,5.7504500
hoyanger,44040.325000000004,356,Open,6993,Høyanger,61.2186;6.0727,HØYANGER,14,SOGN OG FJORDANE,1416,HØYANGER,G,Gateadresser og stedsadresser,61.2211900,6.0814900
knarvik,402490.62399999995,156,Open,5914,Isdalstø,60.546932;5.2856493,ISDALSTØ,12,HORDALAND,1263,LINDÅS,G,Gateadresser og stedsadresser,60.5470700,5.2902500
lonevag,57906.298,421,Open,5282,Lonevåg,60.52540824;5.49676895141,LONEVÅG,12,HORDALAND,1253,OSTERØY,G,Gateadresser og stedsadresser,60.5255400,5.5032800
luster,29377.4,366,Open,6868,Gaupne,61.4065;7.2883,GAUPNE,14,SOGN OG FJORDANE,1426,LUSTER,G,Gateadresser og stedsadresser,61.4026560,7.2963380
maloy,108636.299,151,Open,6700,Måløy,61.93555;5.114850,MÅLØY,14,SOGN OG FJORDANE,1439,VÅGSØY,G,Gateadresser og stedsadresser,61.9359830,5.1144360
nordfjordeid,146908.76400000002,255,Open,6770,Nordfjordeid,61.908603;5.984137,NORDFJORDEID,14,SOGN OG FJORDANE,1443,EID,G,Gateadresser og stedsadresser,61.9120890,5.9855750
norheimsund,142398.24699999997,177,Open,5600,Norheimsund,60.372338;6.146228,NORHEIMSUND,12,HORDALAND,1238,KVAM,G,Gateadresser og stedsadresser,60.3728580,6.1446730
odda,175806.464,235,Open,5750,Odda,60.0702803;6.5422019,ODDA,12,HORDALAND,1228,ODDA,G,Gateadresser og stedsadresser,60.0649600,6.5453200
os,323437.797,275,Open,5200,Os,60.1838;5.4724,OS,12,HORDALAND,1243,OS (HORDALAND),G,Gateadresser og stedsadresser,60.1867600,5.4646900
radoy,49515.131,433,Open,5936,Manger,60.64102365;5.04195213,MANGER,12,HORDALAND,1260,RADØY,G,Gateadresser og stedsadresser,60.6406400,5.0420000
rosendal,42502.599,102,Open,5470,Rosendal,59.9860712;6.0100417,ROSENDAL,12,HORDALAND,1224,KVINNHERAD,G,Gateadresser og stedsadresser,59.5909000,6.0041000
samnanger,30172.241000000005,153,Open,5652,Årland,60.401232;5.730157,ÅRLAND,12,HORDALAND,1242,SAMNANGER,G,Gateadresser og stedsadresser,60.4013400,5.7308100
sandane,87140.12,346,Open,6823,Sandane,61.7757738;6.2135982,SANDANE,14,SOGN OG FJORDANE,1445,GLOPPEN,G,Gateadresser og stedsadresser,61.7806730,6.2201930
sogndal,211607.725,261,Open,6856,Sogndal,61.2318;7.102,SOGNDAL,14,SOGN OG FJORDANE,1420,SOGNDAL,G,Gateadresser og stedsadresser,61.2316200,7.0947300
sotra,395597.647,325,Open,5353,Straume,60.358975;5.124328,STRAUME,12,HORDALAND,1246,FJELL,G,Gateadresser og stedsadresser,60.3585670,5.1255510
stord,340753.287,297,Open,5411,Stord,59.7785025;5.4993168,STORD,12,HORDALAND,1221,STORD,G,Gateadresser og stedsadresser,59.7722400,5.4967900
stryn,146500.215,310,Open,6783,Stryn,61.9033622;6.7190685,STRYN,14,SOGN OG FJORDANE,1449,STRYN,G,Gateadresser og stedsadresser,61.9046120,6.7213950
sund,70425.31,466,Open,5382,Skogsvåg,60.2700735;5.0724634,SKOGSVÅG,12,HORDALAND,1245,SUND,G,Gateadresser og stedsadresser,60.2702800,5.0726420
sveio,51519.68,476,Open,5559,Sveio,59.543472;5.354623,SVEIO,12,HORDALAND,1216,SVEIO,P,Postbokser,59.5439400,5.3585300
tysnes,49581.369,458,Open,5680,Tysnes,60.04392149;5.52213728,TYSNES,12,HORDALAND,1223,TYSNES,G,Gateadresser og stedsadresser,60.0435040,5.5226900
vik i sogn,31742.578999999998,464,Open,6893,Vik I Sogn,61.0856397;6.5815133,VIK I SOGN,14,SOGN OG FJORDANE,1417,VIK,G,Gateadresser og stedsadresser,61.0847100,6.5780900
voss,340999.178,298,Open,5700,Voss,60.629113;6.424191,VOSS,12,HORDALAND,1235,VOSS,G,Gateadresser og stedsadresser,60.6279100,6.4195700
ardal,72660.01199999999,311,Open,6884,Øvre Årdal,61.3101937; 7.8079549,ØVRE ÅRDAL,14,SOGN OG FJORDANE,1424,ÅRDAL,G,Gateadresser og stedsadresser,61.3102270,7.7992630
askim,355036.81,203,Open,1811,Askim,59.5815876;11.1688260,ASKIM,01,ØSTFOLD,0124,ASKIM,G,Gateadresser og stedsadresser,59.5794900,11.1814900
"fredrikstad, varstetorvet",471820.13000000006,219,Open,1671,Kråkerøy,59.211319;10.931489,KRÅKERØY,01,ØSTFOLD,0106,FREDRIKSTAD,G,Gateadresser og stedsadresser,59.2058330,10.9385200
"fredrikstad, ostsiden",461478.748,222,Open,1633,Gamle Fredrikstad,59.206;10.973,GAMLE FREDRIKSTAD,01,ØSTFOLD,0106,FREDRIKSTAD,G,Gateadresser og stedsadresser,59.2046800,10.9686500
halden,267221.488,229,Open,1771,Halden,59.1215016;11.3833732,HALDEN,01,ØSTFOLD,0101,HALDEN,G,Gateadresser og stedsadresser,59.1221200,11.3764900
hvaler,116998.325,321,Open,1680,Skjærhalden,59.0275057;11.0341843,SKJÆRHALDEN,01,ØSTFOLD,0111,HVALER,G,Gateadresser og stedsadresser,59.0269500,11.0343500
moss,349728.06000000006,270,Open,1530,Moss,59.4372651;10.6639834,MOSS,01,ØSTFOLD,0104,MOSS,G,Gateadresser og stedsadresser,59.4364600,10.6669800
mysen,171322.98299999998,343,Open,1850,Mysen,59.5534136;11.3327564,MYSEN,01,ØSTFOLD,0125,EIDSBERG,G,Gateadresser og stedsadresser,59.5542760,11.3239680
rakkestad,75154.383,300,Open,1890,Rakkestad,59.4276587;11.3401048,RAKKESTAD,01,ØSTFOLD,0128,RAKKESTAD,G,Gateadresser og stedsadresser,59.4283160,11.3437560
rygge,700856.571,350,Open,1526,Moss,59.4161;10.6826,MOSS,01,ØSTFOLD,0136,RYGGE,G,Gateadresser og stedsadresser,59.4131900,10.6747800
"sarpsborg, borg",399436.347,461,Open,1711,Sarpsborg,59.2741392;11.0822828,SARPSBORG,01,ØSTFOLD,0105,SARPSBORG,G,Gateadresser og stedsadresser,59.2832000,11.0874400
"sarpsborg, storbyen",216643.67200000002,285,Open,1723,Sarpsborg,59.2842033;11.1081653,SARPSBORG,01,ØSTFOLD,0105,SARPSBORG,G,Gateadresser og stedsadresser,59.2818900,11.1019300
